[{"OBJECT_NAME":"STARLINK-36747","OBJECT_ID":"2026-026K","EPOCH":"2026-03-09T22:00:01.999584","MEAN_MOTION":15.47656254,"ECCENTRICITY":0.00019233,"INCLINATION":97.2843,"RA_OF_ASC_NODE":123.4749,"ARG_OF_PERICENTER":76.4571,"MEAN_ANOMALY":77.6446,"EPHEMERIS_TYPE":0,"CLASSIFICATION_TYPE":"U","NORAD_CAT_ID":67730,"ELEMENT_SET_NO":999,"REV_AT_EPOCH":535,"BSTAR":-0.044710666,"MEAN_MOTION_DOT":-0.02053525,"MEAN_MOTION_DDOT":0},{"OBJECT_NAME":"FREGAT DEB","OBJECT_ID":"2011-037BA","EPOCH":"2026-03-07T21:51:11.179584","MEAN_MOTION":11.85982955,"ECCENTRICITY":0.16068404,"INCLINATION":51.4778,"RA_OF_ASC_NODE":309.8732,"ARG_OF_PERICENTER":204.2893,"MEAN_ANOMALY":147.3247,"EPHEMERIS_TYPE":0,"CLASSIFICATION_TYPE":"U","NORAD_CAT_ID":45816,"ELEMENT_SET_NO":999,"REV_AT_EPOCH":24023,"BSTAR":0.0038548869,"MEAN_MOTION_DOT":0.00018183,"MEAN_MOTION_DDOT":0}]
